{"fetched_at":"2026-07-18T17:30:09.645Z","source":"https://celestrak.org/NORAD/elements/gp.php?NAME=O3B&FORMAT=JSON","constellation":"o3b-mpower","records":[{"OBJECT_NAME":"O3B MPOWER F1","OBJECT_ID":"2022-174A","EPOCH":"2026-07-17T22:23:09.379680","CLASSIFICATION_TYPE":"U","MEAN_MOTION":5.00114733,"ECCENTRICITY":0.00066536,"INCLINATION":0.0489,"RA_OF_ASC_NODE":339.2317,"ARG_OF_PERICENTER":147.7129,"MEAN_ANOMALY":244.1529,"EPHEMERIS_TYPE":0,"NORAD_CAT_ID":54755,"ELEMENT_SET_NO":999,"REV_AT_EPOCH":6689,"BSTAR":0,"MEAN_MOTION_DOT":-2.5e-7,"MEAN_MOTION_DDOT":0},{"OBJECT_NAME":"O3B MPOWER F2","OBJECT_ID":"2022-174B","EPOCH":"2026-07-18T02:14:14.131968","CLASSIFICATION_TYPE":"U","MEAN_MOTION":5.00114898,"ECCENTRICITY":0.00057781,"INCLINATION":0.0448,"RA_OF_ASC_NODE":339.8085,"ARG_OF_PERICENTER":131.2607,"MEAN_ANOMALY":248.9888,"EPHEMERIS_TYPE":0,"NORAD_CAT_ID":54756,"ELEMENT_SET_NO":999,"REV_AT_EPOCH":6699,"BSTAR":0,"MEAN_MOTION_DOT":-2.5e-7,"MEAN_MOTION_DDOT":0},{"OBJECT_NAME":"O3B MPOWER F4","OBJECT_ID":"2023-059A","EPOCH":"2026-07-16T08:36:08.303616","CLASSIFICATION_TYPE":"U","MEAN_MOTION":5.00115393,"ECCENTRICITY":0.0007732,"INCLINATION":0.0629,"RA_OF_ASC_NODE":349.7471,"ARG_OF_PERICENTER":128.2686,"MEAN_ANOMALY":242.0585,"EPHEMERIS_TYPE":0,"NORAD_CAT_ID":56367,"ELEMENT_SET_NO":999,"REV_AT_EPOCH":6006,"BSTAR":0,"MEAN_MOTION_DOT":-2.5e-7,"MEAN_MOTION_DDOT":0},{"OBJECT_NAME":"O3B MPOWER F3","OBJECT_ID":"2023-059B","EPOCH":"2026-07-18T04:34:25.297248","CLASSIFICATION_TYPE":"U","MEAN_MOTION":5.00116458,"ECCENTRICITY":0.00066595,"INCLINATION":0.0635,"RA_OF_ASC_NODE":348.6885,"ARG_OF_PERICENTER":124.3223,"MEAN_ANOMALY":247.0556,"EPHEMERIS_TYPE":0,"NORAD_CAT_ID":56368,"ELEMENT_SET_NO":999,"REV_AT_EPOCH":5628,"BSTAR":0,"MEAN_MOTION_DOT":-2.5e-7,"MEAN_MOTION_DDOT":0},{"OBJECT_NAME":"O3B MPOWER F5","OBJECT_ID":"2023-175A","EPOCH":"2026-07-18T02:12:01.179648","CLASSIFICATION_TYPE":"U","MEAN_MOTION":5.00115871,"ECCENTRICITY":0.00055388,"INCLINATION":0.0526,"RA_OF_ASC_NODE":8.9283,"ARG_OF_PERICENTER":125.8019,"MEAN_ANOMALY":225.311,"EPHEMERIS_TYPE":0,"NORAD_CAT_ID":58346,"ELEMENT_SET_NO":999,"REV_AT_EPOCH":5098,"BSTAR":0,"MEAN_MOTION_DOT":-2.5e-7,"MEAN_MOTION_DDOT":0},{"OBJECT_NAME":"O3B MPOWER F6","OBJECT_ID":"2023-175B","EPOCH":"2026-07-17T23:48:51.971616","CLASSIFICATION_TYPE":"U","MEAN_MOTION":5.00115752,"ECCENTRICITY":0.00044318,"INCLINATION":0.0542,"RA_OF_ASC_NODE":0.526,"ARG_OF_PERICENTER":114.7041,"MEAN_ANOMALY":244.812,"EPHEMERIS_TYPE":0,"NORAD_CAT_ID":58347,"ELEMENT_SET_NO":999,"REV_AT_EPOCH":4988,"BSTAR":0,"MEAN_MOTION_DOT":-2.5e-7,"MEAN_MOTION_DDOT":0},{"OBJECT_NAME":"O3B MPOWER F7","OBJECT_ID":"2024-244A","EPOCH":"2026-07-18T06:12:19.770624","CLASSIFICATION_TYPE":"U","MEAN_MOTION":5.0011534,"ECCENTRICITY":0.0005927,"INCLINATION":0.0657,"RA_OF_ASC_NODE":342.2439,"ARG_OF_PERICENTER":130.2776,"MEAN_ANOMALY":247.5374,"EPHEMERIS_TYPE":0,"NORAD_CAT_ID":62362,"ELEMENT_SET_NO":999,"REV_AT_EPOCH":2807,"BSTAR":0,"MEAN_MOTION_DOT":-2.5e-7,"MEAN_MOTION_DDOT":0},{"OBJECT_NAME":"O3B MPOWER F8","OBJECT_ID":"2024-244B","EPOCH":"2026-07-18T00:36:53.846208","CLASSIFICATION_TYPE":"U","MEAN_MOTION":5.00115063,"ECCENTRICITY":0.00057313,"INCLINATION":0.0148,"RA_OF_ASC_NODE":7.6603,"ARG_OF_PERICENTER":97.4388,"MEAN_ANOMALY":254.9604,"EPHEMERIS_TYPE":0,"NORAD_CAT_ID":62363,"ELEMENT_SET_NO":999,"REV_AT_EPOCH":2241,"BSTAR":0,"MEAN_MOTION_DOT":-2.5e-7,"MEAN_MOTION_DDOT":0},{"OBJECT_NAME":"O3B MPOWER F9","OBJECT_ID":"2025-153A","EPOCH":"2026-07-15T08:39:00.821952","CLASSIFICATION_TYPE":"U","MEAN_MOTION":5.00115544,"ECCENTRICITY":0.00067313,"INCLINATION":0.0613,"RA_OF_ASC_NODE":5.5162,"ARG_OF_PERICENTER":126.663,"MEAN_ANOMALY":227.8743,"EPHEMERIS_TYPE":0,"NORAD_CAT_ID":64866,"ELEMENT_SET_NO":999,"REV_AT_EPOCH":2097,"BSTAR":0,"MEAN_MOTION_DOT":-2.4e-7,"MEAN_MOTION_DDOT":0},{"OBJECT_NAME":"O3B MPOWER F10","OBJECT_ID":"2025-153B","EPOCH":"2026-07-18T02:59:55.622112","CLASSIFICATION_TYPE":"U","MEAN_MOTION":5.00114914,"ECCENTRICITY":0.00024975,"INCLINATION":0.0586,"RA_OF_ASC_NODE":1.7644,"ARG_OF_PERICENTER":245.8236,"MEAN_ANOMALY":112.3816,"EPHEMERIS_TYPE":0,"NORAD_CAT_ID":64867,"ELEMENT_SET_NO":999,"REV_AT_EPOCH":2358,"BSTAR":0,"MEAN_MOTION_DOT":-2.5e-7,"MEAN_MOTION_DDOT":0}]}
