O3B MPOWER F1           
1 54755U 22174A   26198.93274745 -.00000025  00000+0  00000+0 0  9995
2 54755   0.0489 339.2317 0006653 147.7129 244.1529  5.00114733 66898
O3B MPOWER F2           
1 54756U 22174B   26199.09321912 -.00000025  00000+0  00000+0 0  9993
2 54756   0.0448 339.8085 0005778 131.2607 248.9888  5.00114898 66991
O3B MPOWER F4           
1 56367U 23059A   26197.35842944 -.00000025  00000+0  00000+0 0  9996
2 56367   0.0629 349.7471 0007732 128.2686 242.0585  5.00115393 60068
O3B MPOWER F3           
1 56368U 23059B   26199.19057057 -.00000025  00000+0  00000+0 0  9994
2 56368   0.0635 348.6885 0006659 124.3223 247.0556  5.00116458 56289
O3B MPOWER F5           
1 58346U 23175A   26199.09168032 -.00000025  00000+0  00000+0 0  9996
2 58346   0.0526   8.9283 0005538 125.8019 225.3110  5.00115871 50982
O3B MPOWER F6           
1 58347U 23175B   26198.99226819 -.00000025  00000+0  00000+0 0  9993
2 58347   0.0542   0.5260 0004431 114.7041 244.8120  5.00115752 49889
O3B MPOWER F7           
1 62362U 24244A   26199.25856216 -.00000025  00000+0  00000+0 0  9993
2 62362   0.0657 342.2439 0005927 130.2776 247.5374  5.00115340 28073
O3B MPOWER F8           
1 62363U 24244B   26199.02562322 -.00000025  00000+0  00000+0 0  9991
2 62363   0.0148   7.6603 0005731  97.4388 254.9604  5.00115063 22412
O3B MPOWER F9           
1 64866U 25153A   26196.36042618 -.00000024  00000+0  00000+0 0  9995
2 64866   0.0613   5.5162 0006731 126.6630 227.8743  5.00115544 20978
O3B MPOWER F10          
1 64867U 25153B   26199.12494933 -.00000025  00000+0  00000+0 0  9995
2 64867   0.0586   1.7644 0002497 245.8236 112.3816  5.00114914 23581
